STARLINK-2498
1 48326U 21036BC  26061.16668981  .00108282  00000+0  60947-2 0  9993
2 48326  53.0748 135.3356 0001742 105.4923 110.1010 15.12370263  5825
STARLINK-2642
1 48437U 21040K   26061.16668981  .01492642  00000+0  77495-1 0  9993
2 48437  53.0792 225.3251 0000705 134.6244 190.7013 15.12370018  5813
